STARLINK-11350 [DTC]    
1 61540U 24184J   26004.96515338  .00001020  00000+0  13278-4 0  9994
2 61540  53.1600 190.0366 0000770  71.7338 288.3763 15.69704324 70411
STARLINK-11357 [DTC]    
1 61541U 24184K   26004.76934625 -.00001946  00000+0 -11208-4 0  9997
2 61541  53.1606 191.6808 0001073 116.7303 243.3825 15.69705160 70379
STARLINK-11322 [DTC]    
1 61542U 24184L   26005.52848831 -.00003663  00000+0 -25414-4 0  9998
2 61542  53.1601 187.8818 0000686  63.1489 296.9599 15.69693850 71557
STARLINK-11364 [DTC]    
1 61543U 24184M   26005.52357235 -.00005479  00000+0 -40414-4 0  9996
2 61543  53.1598 187.8472 0000847 117.0045 243.1059 15.69701220 70493
STARLINK-11349 [DTC]    
1 61544U 24184N   26005.64596900  .00003442  00000+0  33221-4 0  9998
2 61544  53.1597 187.1882 0001801 113.5266 246.5941 15.69742225 70518
STARLINK-32406          
1 61545U 24184P   26005.25522294  .00001667  00000+0  68423-4 0  9990
2 61545  53.1616 308.6706 0001379  90.4515 269.6644 15.30191668 68796
STARLINK-32445          
1 61546U 24184Q   26005.26788566  .00002446  00000+0  94694-4 0  9993
2 61546  53.1599 308.7579 0000895 106.7874 253.3225 15.30193407 68795
STARLINK-32411          
1 61547U 24184R   26005.25206126  .00000291  00000+0  21938-4 0  9997
2 61547  53.1618 308.6517 0001308  73.4780 286.6365 15.30198906 68798
STARLINK-32424          
1 61548U 24184S   26005.26470215  .00002948  00000+0  11156-3 0  9992
2 61548  53.1617 308.7367 0001129  81.7168 278.3961 15.30216645 68796
STARLINK-32389          
1 61549U 24184T   26005.24889281  .00001404  00000+0  59540-4 0  9994
2 61549  53.1613 308.6432 0001097  77.1743 282.9380 15.30194134 68791
STARLINK-32476          
1 61550U 24184U   26005.26154750  .00002208  00000+0  86645-4 0  9993
2 61550  53.1614 308.7126 0001014 117.3595 242.7509 15.30202336 68797
STARLINK-32366          
1 61551U 24184V   26005.27105100  .00002376  00000+0  92332-4 0  9996
2 61551  53.1615 308.7769 0000921 101.1036 259.0068 15.30195467 68796
STARLINK-11356 [DTC]    
1 61574U 24187A   26004.97990324  .00000143  00000+0  60425-5 0  9999
2 61574  53.1594 250.3445 0001024  81.2004 278.9130 15.69703070 70776
STARLINK-11376 [DTC]    
1 61575U 24187B   26004.97499830  .00000887  00000+0  12186-4 0  9991
2 61575  53.1598 250.3119 0001437  78.7054 281.4125 15.69698157 70696
STARLINK-11372 [DTC]    
1 61576U 24187C   26004.97009072  .00001707  00000+0  18958-4 0  9992
2 61576  53.1586 250.2768 0000985  88.9956 271.1175 15.69692850 70745
STARLINK-11375 [DTC]    
1 61577U 24187D   26005.66553178  .00003075  00000+0  30223-4 0  9990
2 61577  53.1597 246.7928 0000912 104.2776 255.8343 15.69711856 70854
