[{"OBJECT_NAME":"STARLINK-11350 [DTC]","OBJECT_ID":"2024-184J","EPOCH":"2026-01-04T23:09:49.252032","MEAN_MOTION":15.69704324,"ECCENTRICITY":7.706e-5,"INCLINATION":53.16,"RA_OF_ASC_NODE":190.0366,"ARG_OF_PERICENTER":71.7338,"MEAN_ANOMALY":288.3763,"EPHEMERIS_TYPE":0,"CLASSIFICATION_TYPE":"U","NORAD_CAT_ID":61540,"ELEMENT_SET_NO":999,"REV_AT_EPOCH":7041,"BSTAR":1.327767e-5,"MEAN_MOTION_DOT":1.02e-5,"MEAN_MOTION_DDOT":0},{"OBJECT_NAME":"STARLINK-11357 [DTC]","OBJECT_ID":"2024-184K","EPOCH":"2026-01-04T18:27:51.516000","MEAN_MOTION":15.6970516,"ECCENTRICITY":0.00010733,"INCLINATION":53.1606,"RA_OF_ASC_NODE":191.6808,"ARG_OF_PERICENTER":116.7303,"MEAN_ANOMALY":243.3825,"EPHEMERIS_TYPE":0,"CLASSIFICATION_TYPE":"U","NORAD_CAT_ID":61541,"ELEMENT_SET_NO":999,"REV_AT_EPOCH":7037,"BSTAR":-1.1208392e-5,"MEAN_MOTION_DOT":-1.946e-5,"MEAN_MOTION_DDOT":0},{"OBJECT_NAME":"STARLINK-11322 [DTC]","OBJECT_ID":"2024-184L","EPOCH":"2026-01-05T12:41:01.389984","MEAN_MOTION":15.6969385,"ECCENTRICITY":6.866e-5,"INCLINATION":53.1601,"RA_OF_ASC_NODE":187.8818,"ARG_OF_PERICENTER":63.1489,"MEAN_ANOMALY":296.9599,"EPHEMERIS_TYPE":0,"CLASSIFICATION_TYPE":"U","NORAD_CAT_ID":61542,"ELEMENT_SET_NO":999,"REV_AT_EPOCH":7155,"BSTAR":-2.5413895e-5,"MEAN_MOTION_DOT":-3.663e-5,"MEAN_MOTION_DDOT":0},{"OBJECT_NAME":"STARLINK-11364 [DTC]","OBJECT_ID":"2024-184M","EPOCH":"2026-01-05T12:33:56.651040","MEAN_MOTION":15.6970122,"ECCENTRICITY":8.474e-5,"INCLINATION":53.1598,"RA_OF_ASC_NODE":187.8472,"ARG_OF_PERICENTER":117.0045,"MEAN_ANOMALY":243.1059,"EPHEMERIS_TYPE":0,"CLASSIFICATION_TYPE":"U","NORAD_CAT_ID":61543,"ELEMENT_SET_NO":999,"REV_AT_EPOCH":7049,"BSTAR":-4.0413847e-5,"MEAN_MOTION_DOT":-5.479e-5,"MEAN_MOTION_DDOT":0},{"OBJECT_NAME":"STARLINK-11349 [DTC]","OBJECT_ID":"2024-184N","EPOCH":"2026-01-05T15:30:11.721600","MEAN_MOTION":15.69742225,"ECCENTRICITY":0.00018011,"INCLINATION":53.1597,"RA_OF_ASC_NODE":187.1882,"ARG_OF_PERICENTER":113.5266,"MEAN_ANOMALY":246.5941,"EPHEMERIS_TYPE":0,"CLASSIFICATION_TYPE":"U","NORAD_CAT_ID":61544,"ELEMENT_SET_NO":999,"REV_AT_EPOCH":7051,"BSTAR":3.3221133e-5,"MEAN_MOTION_DOT":3.442e-5,"MEAN_MOTION_DDOT":0},{"OBJECT_NAME":"STARLINK-32406","OBJECT_ID":"2024-184P","EPOCH":"2026-01-05T06:07:31.262016","MEAN_MOTION":15.30191668,"ECCENTRICITY":0.0001379,"INCLINATION":53.1616,"RA_OF_ASC_NODE":308.6706,"ARG_OF_PERICENTER":90.4515,"MEAN_ANOMALY":269.6644,"EPHEMERIS_TYPE":0,"CLASSIFICATION_TYPE":"U","NORAD_CAT_ID":61545,"ELEMENT_SET_NO":999,"REV_AT_EPOCH":6879,"BSTAR":6.8423e-5,"MEAN_MOTION_DOT":1.667e-5,"MEAN_MOTION_DDOT":0},{"OBJECT_NAME":"STARLINK-32445","OBJECT_ID":"2024-184Q","EPOCH":"2026-01-05T06:25:45.321024","MEAN_MOTION":15.30193407,"ECCENTRICITY":8.95e-5,"INCLINATION":53.1599,"RA_OF_ASC_NODE":308.7579,"ARG_OF_PERICENTER":106.7874,"MEAN_ANOMALY":253.3225,"EPHEMERIS_TYPE":0,"CLASSIFICATION_TYPE":"U","NORAD_CAT_ID":61546,"ELEMENT_SET_NO":999,"REV_AT_EPOCH":6879,"BSTAR":9.4694e-5,"MEAN_MOTION_DOT":2.446e-5,"MEAN_MOTION_DDOT":0},{"OBJECT_NAME":"STARLINK-32411","OBJECT_ID":"2024-184R","EPOCH":"2026-01-05T06:02:58.092864","MEAN_MOTION":15.30198906,"ECCENTRICITY":0.0001308,"INCLINATION":53.1618,"RA_OF_ASC_NODE":308.6517,"ARG_OF_PERICENTER":73.478,"MEAN_ANOMALY":286.6365,"EPHEMERIS_TYPE":0,"CLASSIFICATION_TYPE":"U","NORAD_CAT_ID":61547,"ELEMENT_SET_NO":999,"REV_AT_EPOCH":6879,"BSTAR":2.1938e-5,"MEAN_MOTION_DOT":2.91e-6,"MEAN_MOTION_DDOT":0},{"OBJECT_NAME":"STARLINK-32424","OBJECT_ID":"2024-184S","EPOCH":"2026-01-05T06:21:10.265760","MEAN_MOTION":15.30216645,"ECCENTRICITY":0.0001129,"INCLINATION":53.1617,"RA_OF_ASC_NODE":308.7367,"ARG_OF_PERICENTER":81.7168,"MEAN_ANOMALY":278.3961,"EPHEMERIS_TYPE":0,"CLASSIFICATION_TYPE":"U","NORAD_CAT_ID":61548,"ELEMENT_SET_NO":999,"REV_AT_EPOCH":6879,"BSTAR":0.00011156,"MEAN_MOTION_DOT":2.948e-5,"MEAN_MOTION_DDOT":0},{"OBJECT_NAME":"STARLINK-32389","OBJECT_ID":"2024-184T","EPOCH":"2026-01-05T05:58:24.338784","MEAN_MOTION":15.30194134,"ECCENTRICITY":0.0001097,"INCLINATION":53.1613,"RA_OF_ASC_NODE":308.6432,"ARG_OF_PERICENTER":77.1743,"MEAN_ANOMALY":282.938,"EPHEMERIS_TYPE":0,"CLASSIFICATION_TYPE":"U","NORAD_CAT_ID":61549,"ELEMENT_SET_NO":999,"REV_AT_EPOCH":6879,"BSTAR":5.954e-5,"MEAN_MOTION_DOT":1.404e-5,"MEAN_MOTION_DDOT":0},{"OBJECT_NAME":"STARLINK-32476","OBJECT_ID":"2024-184U","EPOCH":"2026-01-05T06:16:37.704000","MEAN_MOTION":15.30202336,"ECCENTRICITY":0.0001014,"INCLINATION":53.1614,"RA_OF_ASC_NODE":308.7126,"ARG_OF_PERICENTER":117.3595,"MEAN_ANOMALY":242.7509,"EPHEMERIS_TYPE":0,"CLASSIFICATION_TYPE":"U","NORAD_CAT_ID":61550,"ELEMENT_SET_NO":999,"REV_AT_EPOCH":6879,"BSTAR":8.6645e-5,"MEAN_MOTION_DOT":2.208e-5,"MEAN_MOTION_DDOT":0},{"OBJECT_NAME":"STARLINK-32366","OBJECT_ID":"2024-184V","EPOCH":"2026-01-05T06:30:18.806400","MEAN_MOTION":15.30195467,"ECCENTRICITY":9.21e-5,"INCLINATION":53.1615,"RA_OF_ASC_NODE":308.7769,"ARG_OF_PERICENTER":101.1036,"MEAN_ANOMALY":259.0068,"EPHEMERIS_TYPE":0,"CLASSIFICATION_TYPE":"U","NORAD_CAT_ID":61551,"ELEMENT_SET_NO":999,"REV_AT_EPOCH":6879,"BSTAR":9.2332e-5,"MEAN_MOTION_DOT":2.376e-5,"MEAN_MOTION_DDOT":0},{"OBJECT_NAME":"STARLINK-11356 [DTC]","OBJECT_ID":"2024-187A","EPOCH":"2026-01-04T23:31:03.639936","MEAN_MOTION":15.6970307,"ECCENTRICITY":0.0001024,"INCLINATION":53.1594,"RA_OF_ASC_NODE":250.3445,"ARG_OF_PERICENTER":81.2004,"MEAN_ANOMALY":278.913,"EPHEMERIS_TYPE":0,"CLASSIFICATION_TYPE":"U","NORAD_CAT_ID":61574,"ELEMENT_SET_NO":999,"REV_AT_EPOCH":7077,"BSTAR":6.0425e-6,"MEAN_MOTION_DOT":1.43e-6,"MEAN_MOTION_DDOT":0},{"OBJECT_NAME":"STARLINK-11376 [DTC]","OBJECT_ID":"2024-187B","EPOCH":"2026-01-04T23:23:59.853120","MEAN_MOTION":15.69698157,"ECCENTRICITY":0.0001437,"INCLINATION":53.1598,"RA_OF_ASC_NODE":250.3119,"ARG_OF_PERICENTER":78.7054,"MEAN_ANOMALY":281.4125,"EPHEMERIS_TYPE":0,"CLASSIFICATION_TYPE":"U","NORAD_CAT_ID":61575,"ELEMENT_SET_NO":999,"REV_AT_EPOCH":7069,"BSTAR":1.2186e-5,"MEAN_MOTION_DOT":8.87e-6,"MEAN_MOTION_DDOT":0},{"OBJECT_NAME":"STARLINK-11372 [DTC]","OBJECT_ID":"2024-187C","EPOCH":"2026-01-04T23:16:55.838208","MEAN_MOTION":15.6969285,"ECCENTRICITY":9.85e-5,"INCLINATION":53.1586,"RA_OF_ASC_NODE":250.2768,"ARG_OF_PERICENTER":88.9956,"MEAN_ANOMALY":271.1175,"EPHEMERIS_TYPE":0,"CLASSIFICATION_TYPE":"U","NORAD_CAT_ID":61576,"ELEMENT_SET_NO":999,"REV_AT_EPOCH":7074,"BSTAR":1.8958e-5,"MEAN_MOTION_DOT":1.707e-5,"MEAN_MOTION_DDOT":0},{"OBJECT_NAME":"STARLINK-11375 [DTC]","OBJECT_ID":"2024-187D","EPOCH":"2026-01-05T15:58:21.945792","MEAN_MOTION":15.69711856,"ECCENTRICITY":9.127e-5,"INCLINATION":53.1597,"RA_OF_ASC_NODE":246.7928,"ARG_OF_PERICENTER":104.2776,"MEAN_ANOMALY":255.8343,"EPHEMERIS_TYPE":0,"CLASSIFICATION_TYPE":"U","NORAD_CAT_ID":61577,"ELEMENT_SET_NO":999,"REV_AT_EPOCH":7085,"BSTAR":3.022305e-5,"MEAN_MOTION_DOT":3.075e-5,"MEAN_MOTION_DDOT":0}]
